#aV2009 12 22  0  0   .00000000      96 DD+AD WGS84 FIT  NGA
## 1563 172800.00000000   900.00000000 55187  .0000000000000
+   32     1  2  3  4  5  6  7  8  9 10 11 12 13 14 15 16 17
+         18 19 20 21 22 23 24 25 26 27 28 29 30 31 32  0  0
+          0  0  0  0  0  0  0  0  0  0  0  0  0  0  0  0  0
+          0  0  0  0  0  0  0  0  0  0  0  0  0  0  0  0  0
+          0  0  0  0  0  0  0  0  0  0  0  0  0  0  0  0  0
++         0  0  0  0  0  0  0  0  0  0  0  0  0  0  0  0  0
++         0  0  0  0  0  0  0  0  0  0  0  0  0  0  0  0  0
++         0  0  0  0  0  0  0  0  0  0  0  0  0  0  0  0  0
++         0  0  0  0  0  0  0  0  0  0  0  0  0  0  0  0  0
++         0  0  0  0  0  0  0  0  0  0  0  0  0  0  0  0  0
%c cc cc ccc ccc cccc cccc cccc cccc ccccc ccccc ccccc ccccc
%c cc cc ccc ccc cccc cccc cccc cccc ccccc ccccc ccccc ccccc
%f  0.0000000  0.000000000  0.00000000000  0.000000000000000
%f  0.0000000  0.000000000  0.00000000000  0.000000000000000
%i    0    0    0    0      0      0      0      0         0
%i    0    0    0    0      0      0      0      0         0
/*      NGA, ST. LOUIS,MO.                                  
/*   EPHEMERIS COMPUTED FROM  3 DAYS OF DATA                
/* CCCCCCCCCCCCCCCCCCCCCCCCCCCCCCCCCCCCCCCCCCCCCCCCCCCCCCCCC
/* CCCCCCCCCCCCCCCCCCCCCCCCCCCCCCCCCCCCCCCCCCCCCCCCCCCCCCCCC
*  2009 12 22 10  0   .00000000                                                 
P  1  13837.937096  18408.331544 -13425.449121    -73.241279                    
V  1 -15706.750503  -6404.199080 -25053.843768      -.028894                    
P  2 -22831.979623  13064.529406   -987.315659    206.553137                    
V  2   -980.180319  -3911.702580 -31538.385131       .045058                    
P  3  11464.585638 -15516.320201  17759.771955    491.347869                    
V  3   5325.897591  23008.259707  16689.220353       .051762                    
P  4 -23647.028532   3575.159721 -12097.795476   -419.232964                    
V  4  11664.332477  -9810.943161 -25685.258177      -.187659                    
P  5 -15488.974688   7523.993363  20227.356557    -25.569777                    
V  5 -21920.467195 -13451.016977 -11691.039794       .049320                    
P  6  13803.753251 -11761.520768  19550.274524    263.253434                    
V  6   2937.891656  24444.278325  12853.686797      -.007515                    
P  7  -7340.637155 -13098.905447  21898.710420      5.575110                    
V  7  24026.972577 -13982.027111   -460.932438      -.006376                    
P  8 -18586.249192  -4338.196125  18674.147582      1.205245                    
V  8  20667.165461 -11204.020352  17435.254317       .004688                    
P  9 -10847.949634  19160.760558 -15477.584057     95.480790                    
V  9 -16394.441194   8620.941279  23208.021169       .022447                    
P 10 -19493.375352   2993.495501  17776.046692    -30.910755                    
V 10 -18789.965543 -13016.214017 -17895.677349      -.008495                    
P 11   4876.628705 -21382.969237 -14986.417973    -35.589815                    
V 11  16314.211460 -10406.329627  20867.836524      -.019724                    
P 12    706.569884  16718.685093 -20602.982205   -173.223593                    
V 12 -23128.576307 -12389.820190 -10688.885020       .050832                    
P 13  -5980.663895 -23287.881221  11142.522226    306.597864                    
V 13   2352.247738 -14193.237118 -28098.203971       .000591                    
P 14  13559.654908   8762.102453 -20977.618698     -9.151513                    
V 14  -1502.197716  26821.985142  10046.154690       .045964                    
P 15  -8082.784455  22128.547482  12199.716586   -317.036740                    
V 15  -2931.288634 -15425.793885  26193.756735       .014646                    
P 16  20713.502479   -981.811496  16787.097959    -22.151874                    
V 16  17358.575735  12086.909839 -20523.110908      -.041725                    
P 17 -14533.454015  -7563.037191 -20869.343554    114.200317                    
V 17   1009.304451 -26624.112680   8709.334102       .035352                    
P 18  18236.879384  17897.666992   8170.611493     36.445569                    
V 18 -10022.102658  -2658.870576  28730.067818       .026999                    
P 19   8877.520713 -22610.479929  10436.315822     -5.288127                    
V 19   1882.121653  13457.888748  27928.190395      -.020864                    
P 20  -5431.997780 -18283.468902 -18637.301422     64.931696                    
V 20  21516.579750   9471.920859 -15615.891401      -.008008                    
P 21  12990.599804  10540.438025  21022.610396    -29.107243                    
V 21 -22381.715621  13294.389851   6637.741979      -.023991                    
P 22  23733.214956  11470.756657  -3412.787517    183.421540                    
V 22   2080.089189   5314.123071  30780.249809      -.010554                    
P 23    223.114536 -26391.040369   -402.092251    383.929508                    
V 23   2816.387372    477.097582 -32133.642590      -.007444                    
P 24  -3595.953394  17733.920746  19627.713466    247.171072                    
V 24 -22408.863196  10357.107637 -13290.974351       .033597                    
P 25  -1151.875452 -16792.311767  20938.504610     60.487351                    
V 25  21246.907793 -14508.480813 -10456.621765       .104868                    
P 26  10709.707392  16952.200429 -17705.452716     -3.953289                    
V 26  -2367.991920  21446.357233  20162.417632      -.026239                    
P 27 -14438.067309  18762.486706 -11266.715883    110.501902                    
V 27 -14040.447635   6671.427086  27504.294534       .032864                    
P 28 -23003.127398 -13578.345341   -556.904990    -24.488674                    
V 28    135.965704  -2620.104526  31721.895804       .003223                    
P 29   4872.255076  25009.242778   7658.479622     84.106310                    
V 29  -2804.878415   9543.943581 -29687.607665       .029770                    
P 30  12054.023477  18355.654798 -15365.793047    203.798606                    
V 30 -17678.249424  -6768.093549 -22464.609576       .033206                    
P 31  23803.320324  -6088.062265 -10064.103870    -57.890146                    
V 31 -10195.055469   8364.628904 -28408.472697       .011121                    
P 32   4143.500624 -15054.721680 -21157.036705    132.921525                    
V 32  23092.406895  15277.541057  -5936.166156      -.078361                    
EOF
